NORAD_CAT_ID,OBJECT_NAME,OBJECT_TYPE,EPOCH,MEAN_MOTION,ECCENTRICITY,INCLINATION,RA_OF_ASC_NODE,ARG_OF_PERICENTER,MEAN_ANOMALY,BSTAR,MEAN_MOTION_DOT,MEAN_MOTION_DDOT,TLE_LINE0,TLE_LINE1,TLE_LINE2,SEMIMAJOR_AXIS,PERIOD,APOGEE,PERIGEE,DECAYED
55419.0,STARLINK-5629,PAYLOAD,2023-04-20 06:00:00,15.67192563,0.0003531,70.0006,228.818,266.9399,110.8501,-0.0091505,-0.00898683,0.0,0 STARLINK-5629,1 55419U 23014AE  23110.25001157 -.00898683  00000-0 -91505-2 0  9998,2 55419  70.0006 228.8180 0003531 266.9399 110.8501 15.67192563 12536,6745.077,91.884,369.324,364.561,0.0
55419.0,STARLINK-5629,PAYLOAD,2023-04-20 14:00:01,15.66515444,0.0003405,70.0007,227.8852,274.0277,183.4426,-0.0091427,-0.00862977,0.0,0 STARLINK-5629,1 55419U 23014AE  23110.58334491 -.00862977  00000-0 -91427-2 0  9994,2 55419  70.0007 227.8852 0003405 274.0277 183.4426 15.66515444  1308,6747.021,91.924,371.183,366.589,0.0
55419.0,STARLINK-5629,PAYLOAD,2023-04-20 22:00:00,15.65917464,0.0003214,70.0006,226.9531,273.45,262.8856,-0.010413,-0.00964453,0.0,0 STARLINK-5629,1 55419U 23014AE  23110.91667824 -.00964453  00000-0 -10413-1 0  9997,2 55419  70.0006 226.9531 0003214 273.4500 262.8856 15.65917464  1307,6748.738,91.959,372.772,368.434,0.0
55419.0,STARLINK-5629,PAYLOAD,2023-04-21 06:00:00,15.65245891,0.0003356,70.0009,226.0222,264.0622,350.3771,-0.01008,-0.00913646,0.0,0 STARLINK-5629,1 55419U 23014AE  23111.25001157 -.00913646  00000-0 -10080-1 0  9994,2 55419  70.0009 226.0222 0003356 264.0622 350.3771 15.65245891 12697,6750.669,91.998,374.799,370.268,0.0
55419.0,STARLINK-5629,PAYLOAD,2023-04-21 14:00:01,15.64559873,0.0003474,70.0011,225.0921,271.2872,60.4894,-0.0098979,-0.00876339,0.0,0 STARLINK-5629,1 55419U 23014AE  23111.58334491 -.00876339  00000-0 -98979-2 0  9991,2 55419  70.0011 225.0921 0003474 271.2872  60.4894 15.64559873  1301,6752.642,92.039,376.853,372.161,0.0
55419.0,STARLINK-5629,PAYLOAD,2023-04-21 22:00:00,15.63954517,0.0003499,70.0005,224.1628,273.5185,134.78,-0.011129,-0.00954155,0.0,0 STARLINK-5629,1 55419U 23014AE  23111.91667824 -.00954155  00000-0 -11129-1 0  9991,2 55419  70.0005 224.1628 0003499 273.5185 134.7800 15.63954517  1302,6754.384,92.074,378.613,373.886,0.0
55419.0,STARLINK-5629,PAYLOAD,2023-04-22 14:00:01,15.62604282,0.0003318,70.0005,222.3069,272.3191,286.7229,-0.010707,-0.00877386,0.0,0 STARLINK-5629,1 55419U 23014AE  23112.58334491 -.00877386  00000-0 -10707-1 0  9997,2 55419  70.0005 222.3069 0003318 272.3191 286.7229 15.62604282  1308,6758.275,92.154,382.382,377.897,0.0
55419.0,STARLINK-5629,PAYLOAD,2023-04-22 22:00:01,15.61998903,0.000334,70.0003,221.3803,270.9968,2.2853,-0.012084,-0.00958828,0.0,0 STARLINK-5629,1 55419U 23014AE  23112.91668981 -.00958828  00000-0 -12084-1 0  9999,2 55419  70.0003 221.3803 0003340 270.9968   2.2853 15.61998903  1301,6760.021,92.19,384.144,379.628,0.0
55419.0,STARLINK-5629,PAYLOAD,2023-04-23 06:00:00,15.61338194,0.0003598,70.0006,220.455,266.4703,80.1523,-0.011856,-0.00920683,0.0,0 STARLINK-5629,1 55419U 23014AE  23113.25001157 -.00920683  00000-0 -11856-1 0  9997,2 55419  70.0006 220.4550 0003598 266.4703  80.1523 15.61338194 13004,6761.928,92.229,386.226,381.36,0.0
55419.0,STARLINK-5629,PAYLOAD,2023-04-23 14:00:01,15.60653891,0.0003616,70.0005,219.5304,273.5906,145.6768,-0.011744,-0.00890969,0.0,0 STARLINK-5629,1 55419U 23014AE  23113.58334491 -.00890969  00000-0 -11744-1 0  9992,2 55419  70.0005 219.5304 0003616 273.5906 145.6768 15.60653891  1305,6763.904,92.269,388.215,383.323,0.0
55419.0,STARLINK-5629,PAYLOAD,2023-04-23 22:00:00,15.60038278,0.0003502,69.9999,218.6063,272.9658,218.1303,-0.012874,-0.00948048,0.0,0 STARLINK-5629,1 55419U 23014AE  23113.91667824 -.00948048  00000-0 -12874-1 0  9995,2 55419  69.9999 218.6063 0003502 272.9658 218.1303 15.60038278  1304,6765.683,92.305,389.918,385.179,0.0
55419.0,STARLINK-5629,PAYLOAD,2023-04-24 14:00:01,15.58686514,0.0003679,70.0,216.7612,271.2841,1.1675,-0.012314,-0.00868577,0.0,0 STARLINK-5629,1 55419U 23014AE  23114.58334491 -.00868577  00000-0 -12314-1 0  9997,2 55419  70.0000 216.7612 0003679 271.2841   1.1675 15.58686514  1301,6769.595,92.385,393.95,388.969,0.0
55419.0,STARLINK-5629,PAYLOAD,2023-04-25 06:00:00,15.57427346,0.0003537,69.9998,214.92,269.0961,141.5485,-0.013875,-0.00927364,0.0,0 STARLINK-5629,1 55419U 23014AE  23115.25001157 -.00927364  00000-0 -13875-1 0  9995,2 55419  69.9998 214.9200 0003537 269.0961 141.5485 15.57427346 13315,6773.243,92.46,397.503,392.712,0.0
55419.0,STARLINK-5629,PAYLOAD,2023-04-25 14:00:01,15.56724262,0.0003447,69.9994,214.0007,273.8643,204.7979,-0.013095,-0.00858714,0.0,0 STARLINK-5629,1 55419U 23014AE  23115.58335648 -.00858714  00000-0 -13095-1 0  9992,2 55419  69.9994 214.0007 0003447 273.8643 204.7979 15.56724262  1309,6775.282,92.502,399.482,394.812,0.0
55419.0,STARLINK-5629,PAYLOAD,2023-04-26 14:00:01,15.54769786,0.0003378,69.9995,211.2479,268.7372,48.9629,-0.014105,-0.0086014,0.0,0 STARLINK-5629,1 55419U 23014AE  23116.58334491 -.00860140  00000-0 -14105-1 0  9997,2 55419  69.9995 211.2479 0003378 268.7372  48.9629 15.54769786  1305,6780.959,92.618,405.115,400.533,0.0
55419.0,STARLINK-5629,PAYLOAD,2023-04-26 22:00:00,15.54155167,0.0003353,69.9991,210.3321,269.0178,113.4759,-0.015786,-0.00933724,0.0,0 STARLINK-5629,1 55419U 23014AE  23116.91667824 -.00933724  00000-0 -15786-1 0  9998,2 55419  69.9991 210.3321 0003353 269.0178 113.4759 15.54155167  1302,6782.747,92.655,406.886,402.337,0.0
55419.0,STARLINK-5629,PAYLOAD,2023-04-27 06:00:02,15.53521946,0.0003317,69.9994,209.4172,267.5253,179.0408,-0.016325,-0.00942585,0.0,0 STARLINK-5629,1 55419U 23014AE  23117.25002315 -.00942585  00000-0 -16325-1 0  9999,2 55419  69.9994 209.4172 0003317 267.5253 179.0408 15.53521946 13623,6784.59,92.693,408.705,404.204,0.0
55419.0,STARLINK-5629,PAYLOAD,2023-04-27 14:00:01,15.52817843,0.0003177,69.9992,208.5035,274.9524,234.8718,-0.015248,-0.00865311,0.0,0 STARLINK-5629,1 55419U 23014AE  23117.58335648 -.00865311  00000-0 -15248-1 0  9997,2 55419  69.9992 208.5035 0003177 274.9524 234.8718 15.52817843  1305,6786.64,92.735,410.661,406.349,0.0
55419.0,STARLINK-5629,PAYLOAD,2023-04-28 06:00:02,15.5137599,0.0003221,69.9996,206.6783,266.2626,7.7013,-0.0037703,-0.0021685,0.0,0 STARLINK-5629,1 55419U 23014AE  23118.25002315 -.00216850  00000-0 -37703-2 0  9993,2 55419  69.9996 206.6783 0003221 266.2626   7.7013 15.51375990 13786,6790.845,92.821,414.897,410.522,0.0
55419.0,STARLINK-5629,PAYLOAD,2023-04-28 14:00:01,15.51204672,0.0003287,69.9994,205.767,272.6281,62.2742,0.00042524,0.00024874,0.0,0 STARLINK-5629,1 55419U 23014AE  23118.58334491  .00024874  00000-0  42524-3 0  9991,2 55419  69.9994 205.7670 0003287 272.6281  62.2742 15.51204672 13838,6791.345,92.831,415.442,410.977,0.0
55419.0,STARLINK-5629,PAYLOAD,2023-04-29 14:00:01,15.51200371,0.0003458,69.9998,203.0327,273.4672,244.2387,0.00077309,0.00045469,0.0,0 STARLINK-5629,1 55419U 23014AE  23119.58335648  .00045469  00000-0  77309-3 0  9999,2 55419  69.9998 203.0327 0003458 273.4672 244.2387 15.51200371 13980,6791.357,92.831,415.571,410.874,0.0
55419.0,STARLINK-5629,PAYLOAD,2023-04-30 06:00:00,15.51233978,0.0003476,69.9999,201.2101,265.8848,13.5555,0.00011095,6.36e-05,0.0,0 STARLINK-5629,1 55419U 23014AE  23120.25001157  .00006360  00000-0  11095-3 0  9997,2 55419  69.9999 201.2101 0003476 265.8848  13.5555 15.51233978 14097,6791.259,92.829,415.485,410.763,0.0
55419.0,STARLINK-5629,PAYLOAD,2023-04-30 14:00:01,15.51210137,0.0003415,69.9998,200.2988,272.8711,67.498,0.00064039,0.00037612,0.0,0 STARLINK-5629,1 55419U 23014AE  23120.58334491  .00037612  00000-0  64039-3 0  9993,2 55419  69.9998 200.2988 0003415 272.8711  67.4980 15.51210137  1300,6791.329,92.831,415.513,410.874,0.0
55419.0,STARLINK-5629,PAYLOAD,2023-04-30 22:00:00,15.51236284,0.000339,69.9998,199.3874,268.6097,132.6763,-0.00089708,-0.00052534,0.0,0 STARLINK-5629,1 55419U 23014AE  23120.91667824 -.00052534  00000-0 -89708-3 0  9991,2 55419  69.9998 199.3874 0003390 268.6097 132.6763 15.51236284 14190,6791.252,92.829,415.42,410.815,0.0
55419.0,STARLINK-5629,PAYLOAD,2023-05-01 05:33:40,15.51226678,0.000317,69.9978,198.5253,265.5451,94.5373,6.2868e-06,2.05e-06,0.0,0 STARLINK-5629,1 55419U 23014AE  23121.23172045  .00000205  00000-0  62868-5 0  9999,2 55419  69.9978 198.5253 0003170 265.5451  94.5373 15.51226678 14241,6791.28,92.83,415.298,410.993,0.0
55419.0,STARLINK-5629,PAYLOAD,2023-05-01 13:17:58,15.51222441,0.0003271,69.9972,197.6438,265.3708,94.7104,-1.9837e-06,-2.81e-06,0.0,0 STARLINK-5629,1 55419U 23014AE  23121.55414652 -.00000281  00000-0 -19837-5 0  9991,2 55419  69.9972 197.6438 0003271 265.3708  94.7104 15.51222441 15233,6791.293,92.83,415.379,410.936,0.0
55419.0,STARLINK-5629,PAYLOAD,2023-05-01 14:50:49,15.51228755,0.0003206,69.9973,197.4675,264.9255,95.1565,-2.0294e-05,-1.357e-05,0.0,0 STARLINK-5629,1 55419U 23014AE  23121.61862870 -.00001357  00000-0 -20294-4 0  9990,2 55419  69.9973 197.4675 0003206 264.9255  95.1565 15.51228755 15246,6791.274,92.83,415.317,410.962,0.0
55419.0,STARLINK-5629,PAYLOAD,2023-05-02 12:30:49,15.51235277,0.0003396,69.9971,194.9998,265.6117,94.4681,-6.7859e-06,-5.64e-06,0.0,0 STARLINK-5629,1 55419U 23014AE  23122.52140475 -.00000564  00000-0 -67859-5 0  9999,2 55419  69.9971 194.9998 0003396 265.6117  94.4681 15.51235277 14448,6791.255,92.829,415.427,410.814,0.0
55419.0,STARLINK-5629,PAYLOAD,2023-05-02 15:36:32,15.51225777,0.0003609,69.9971,194.6479,269.0577,91.0196,2.6022e-05,1.364e-05,0.0,0 STARLINK-5629,1 55419U 23014AE  23122.65037746  .00001364  00000-0  26022-4 0  9992,2 55419  69.9971 194.6479 0003609 269.0577  91.0196 15.51225777 14464,6791.283,92.83,415.599,410.697,0.0
55419.0,STARLINK-5629,PAYLOAD,2023-05-03 05:32:56,15.50724617,0.0003954,69.9973,193.0622,287.8133,72.2621,-0.0010823,-0.00062139,0.0,0 STARLINK-5629,1 55419U 23014AE  23123.23120481 -.00062139  00000-0 -10823-2 0  9995,2 55419  69.9973 193.0622 0003954 287.8133  72.2621 15.50724617 14558,6792.746,92.86,417.297,411.925,0.0
